NORAD_CAT_ID,OBJECT_NAME,OBJECT_TYPE,EPOCH,MEAN_MOTION,ECCENTRICITY,INCLINATION,RA_OF_ASC_NODE,ARG_OF_PERICENTER,MEAN_ANOMALY,BSTAR,MEAN_MOTION_DOT,MEAN_MOTION_DDOT,TLE_LINE0,TLE_LINE1,TLE_LINE2,SEMIMAJOR_AXIS,PERIOD,APOGEE,PERIGEE,DECAYED
53155.0,STARLINK-4088,PAYLOAD,2022-09-06 14:00:01,15.50074512,0.0001266,53.2172,155.3003,75.3804,212.4265,-0.0049703999999999,-0.00274721,0.0,0 STARLINK-4088,1 53155U 22083Z   22249.58334491 -.00274721  00000-0 -49704-2 0  9991,2 53155  53.2172 155.3003 0001266  75.3804 212.4265 15.50074512  1306,6794.645,92.899,417.371,415.65,0.0
53155.0,STARLINK-4088,PAYLOAD,2022-09-06 20:00:01,15.49884853,0.0001248,53.2177,154.1044,68.4496,175.1467,2.7065e-05,1.085e-05,0.0,0 STARLINK-4088,1 53155U 22083Z   22249.83334491  .00001085  00000-0  27065-4 0  9996,2 53155  53.2177 154.1044 0001248  68.4496 175.1467 15.49884853  8708,6795.2,92.91,417.913,416.217,0.0
53155.0,STARLINK-4088,PAYLOAD,2022-09-06 22:00:00,15.49885777,0.0001293,53.2176,153.7067,65.6391,283.1852,-4.8685e-06,-7.28e-06,0.0,0 STARLINK-4088,1 53155U 22083Z   22249.91667824 -.00000728  00000-0 -48685-5 0  9991,2 53155  53.2176 153.7067 0001293  65.6391 283.1852 15.49885777  1303,6795.196999999999,92.91,417.941,416.1830000000001,0.0
53155.0,STARLINK-4088,PAYLOAD,2022-09-07 04:00:00,15.499016500000002,0.0001307,53.2148,152.52,65.125,239.4294,0.00079866,0.00045165,0.0,0 STARLINK-4088,1 53155U 22083Z   22250.16667824  .00045165  00000-0  79866-3 0  9995,2 53155  53.2148 152.5200 0001307  65.1250 239.4294 15.49901650  8752,6795.151,92.909,417.904,416.127,0.0
53155.0,STARLINK-4088,PAYLOAD,2022-09-07 14:00:01,15.49857078,0.0001308,53.2146,150.5265,79.2903,31.4541,0.00038354,0.00021354,0.0,0 STARLINK-4088,1 53155U 22083Z   22250.58334491  .00021354  00000-0  38354-3 0  9993,2 53155  53.2146 150.5265 0001308  79.2903  31.4541 15.49857078  8828,6795.281,92.912,418.035,416.257,0.0
53155.0,STARLINK-4088,PAYLOAD,2022-09-07 22:00:00,15.49882487,0.0001443999999999,53.2148,148.9348,75.8713,95.7607,-0.00028874,-0.00016802,0.0,0 STARLINK-4088,1 53155U 22083Z   22250.91667824 -.00016802  00000-0 -28874-3 0  9999,2 53155  53.2148 148.9348 0001444  75.8713  95.7607 15.49882487  1309,6795.206999999999,92.91,418.05300000000005,416.09,0.0
53155.0,STARLINK-4088,PAYLOAD,2022-09-08 14:00:01,15.49868251,0.000134,53.2148,145.7474,81.4804,211.9873,0.0010763,0.00061076,0.0,0 STARLINK-4088,1 53155U 22083Z   22251.58334491  .00061076  00000-0  10763-2 0  9992,2 53155  53.2148 145.7474 0001340  81.4804 211.9873 15.49868251  1303,6795.248000000001,92.911,418.024,416.203,0.0
53155.0,STARLINK-4088,PAYLOAD,2022-09-08 22:00:00,15.49921109,0.0001391,53.2151,144.1557,75.8658,278.5218,-0.00029469,-0.00017162,0.0,0 STARLINK-4088,1 53155U 22083Z   22251.91667824 -.00017162  00000-0 -29469-3 0  9991,2 53155  53.2151 144.1557 0001391  75.8658 278.5218 15.49921109  9023,6795.094,92.908,417.904,416.013,0.0
53155.0,STARLINK-4088,PAYLOAD,2022-09-09 14:00:01,15.4984765,0.000112,53.2153,140.9681,77.7559,38.5231,0.00095044,0.00053791,0.0,0 STARLINK-4088,1 53155U 22083Z   22252.58334491  .00053791  00000-0  95044-3 0  9994,2 53155  53.2153 140.9681 0001120  77.7559  38.5231 15.49847650  1308,6795.308000000001,92.912,417.934,416.412,0.0
53155.0,STARLINK-4088,PAYLOAD,2022-09-09 22:00:00,15.49889087,0.0001245,53.2154,139.3767,70.0993,107.0717,-0.00020112,-0.0001185,0.0,0 STARLINK-4088,1 53155U 22083Z   22252.91667824 -.00011850  00000-0 -20112-3 0  9996,2 53155  53.2154 139.3767 0001245  70.0993 107.0717 15.49889087  1303,6795.187,92.91,417.898,416.206,0.0
53155.0,STARLINK-4088,PAYLOAD,2022-09-10 04:00:00,15.4989462,0.0001392,53.2158,138.1804,64.5203,68.3348,-0.00023144,-0.00013569,0.0,0 STARLINK-4088,1 53155U 22083Z   22253.16667824 -.00013569  00000-0 -23144-3 0  9991,2 53155  53.2158 138.1804 0001392  64.5203  68.3348 15.49894620  9228,6795.170999999999,92.91,417.982,416.09,0.0
53155.0,STARLINK-4088,PAYLOAD,2022-09-10 14:00:01,15.49884286,0.0001008,53.2148,136.1888,74.8184,224.2075,-0.00059537,-0.00034093,0.0,0 STARLINK-4088,1 53155U 22083Z   22253.58334491 -.00034093  00000-0 -59537-3 0  9998,2 53155  53.2148 136.1888 0001008  74.8184 224.2075 15.49884286  1301,6795.201,92.91,417.751,416.381,0.0
53155.0,STARLINK-4088,PAYLOAD,2022-09-10 22:00:00,15.49861073,0.0001034,53.2146,134.5974,63.9736,295.9505,-0.00026821,-0.0001563,0.0,0 STARLINK-4088,1 53155U 22083Z   22253.91667824 -.00015630  00000-0 -26821-3 0  9990,2 53155  53.2146 134.5974 0001034  63.9736 295.9505 15.49861073  1300,6795.269,92.912,417.837,416.431,0.0
53155.0,STARLINK-4088,PAYLOAD,2022-09-11 14:00:01,15.49751114,0.0001205999999999,53.2163,131.4041,74.3712,47.3383,0.0032417,0.0018710999999999,0.0,0 STARLINK-4088,1 53155U 22083Z   22254.58334491  .00187110  00000-0  32417-2 0  9993,2 53155  53.2163 131.4041 0001206  74.3712  47.3383 15.49751114  9441,6795.590999999999,92.918,418.275,416.636,0.0
53155.0,STARLINK-4088,PAYLOAD,2022-09-11 20:00:01,15.4988734,0.0001418,53.2175,130.2086,73.9284,3.3831,-5.1699e-05,-3.385e-05,0.0,0 STARLINK-4088,1 53155U 22083Z   22254.83334491 -.00003385  00000-0 -51699-4 0  9999,2 53155  53.2175 130.2086 0001418  73.9284   3.3831 15.49887340  9489,6795.191999999999,92.91,418.021,416.094,0.0
53155.0,STARLINK-4088,PAYLOAD,2022-09-11 22:00:00,15.49884664,0.0001409999999999,53.2173,129.8108,73.2574,109.2839,2.2232e-05,8.1e-06,0.0,0 STARLINK-4088,1 53155U 22083Z   22254.91667824  .00000810  00000-0  22232-4 0  9996,2 53155  53.2173 129.8108 0001410  73.2574 109.2839 15.49884664  1306,6795.2,92.91,418.023,416.107,0.0
53155.0,STARLINK-4088,PAYLOAD,2022-09-12 04:00:00,15.49892446,0.000101,53.2137,128.6236,59.6811,78.6292,0.00049524,0.00027763,0.0,0 STARLINK-4088,1 53155U 22083Z   22255.16667824  .00027763  00000-0  49524-3 0  9992,2 53155  53.2137 128.6236 0001010  59.6811  78.6292 15.49892446  9535,6795.177,92.91,417.729,416.356,0.0
53155.0,STARLINK-4088,PAYLOAD,2022-09-12 12:00:00,15.49893515,9.9e-05,53.2142,127.0277,76.3429,122.9175,-0.00052966,-0.00030404,0.0,0 STARLINK-4088,1 53155U 22083Z   22255.50001157 -.00030404  00000-0 -52966-3 0  9993,2 53155  53.2142 127.0277 0000990  76.3429 122.9175 15.49893515  9582,6795.174,92.91,417.712,416.367,0.0
53155.0,STARLINK-4088,PAYLOAD,2022-09-12 14:00:01,15.49861809,0.0001066999999999,53.2143,126.6281,80.69,223.81,0.00049295,0.00027602,0.0,0 STARLINK-4088,1 53155U 22083Z   22255.58334491  .00027602  00000-0  49295-3 0  9996,2 53155  53.2143 126.6281 0001067  80.6900 223.8100 15.49861809  1303,6795.267,92.912,417.857,416.407,0.0
53155.0,STARLINK-4088,PAYLOAD,2022-09-12 20:00:01,15.50051593,0.0001199999999999,53.2154,125.4326,77.6851,182.5148,-0.0094304,-0.0050549,0.0,0 STARLINK-4088,1 53155U 22083Z   22255.83335648 -.00505490  00000-0 -94304-2 0  9997,2 53155  53.2154 125.4326 0001200  77.6851 182.5148 15.50051593  9632,6794.712,92.9,417.393,415.762,0.0
53155.0,STARLINK-4088,PAYLOAD,2022-09-12 22:00:00,15.50018813,0.0001182,53.2158,125.0342,77.4272,287.9501,-0.011252,-0.00595521,0.0,0 STARLINK-4088,1 53155U 22083Z   22255.91667824 -.00595521  00000-0 -11252-1 0  9994,2 53155  53.2158 125.0342 0001182  77.4272 287.9501 15.50018813  1301,6794.808000000001,92.902,417.476,415.87,0.0
53155.0,STARLINK-4088,PAYLOAD,2022-09-13 14:00:01,15.49095081,0.0001223,53.2174,121.843,92.0559,34.4785,-0.0211389999999999,-0.01059208,0.0,0 STARLINK-4088,1 53155U 22083Z   22256.58334491 -.01059208  00000-0 -21139-1 0  9992,2 53155  53.2174 121.8430 0001223  92.0559  34.4785 15.49095081  1307,6797.509,92.957,420.205,418.543,0.0
53155.0,STARLINK-4088,PAYLOAD,2022-09-13 16:00:00,15.48904868,0.0001308,53.2176,121.4454,98.9452,132.5494,-0.021244,-0.01057519,0.0,0 STARLINK-4088,1 53155U 22083Z   22256.66667824 -.01057519  00000-0 -21244-1 0  9990,2 53155  53.2176 121.4454 0001308  98.9452 132.5494 15.48904868  9768,6798.066,92.969,420.82,419.041,0.0
53155.0,STARLINK-4088,PAYLOAD,2022-09-13 22:00:00,15.4833461,0.0001389,53.2174,120.2539,68.498,117.5356,-0.02167,-0.01057275,0.0,0 STARLINK-4088,1 53155U 22083Z   22256.91667824 -.01057275  00000-0 -21670-1 0  9990,2 53155  53.2174 120.2539 0001389  68.4980 117.5356 15.48334610  1308,6799.735,93.003,422.544,420.655,0.0
53155.0,STARLINK-4088,PAYLOAD,2022-09-14 14:00:01,15.46814572,0.0001174,53.2176,117.0755,78.6543,223.6426,-0.0228039999999999,-0.0105506,0.0,0 STARLINK-4088,1 53155U 22083Z   22257.58334491 -.01055060  00000-0 -22804-1 0  9995,2 53155  53.2176 117.0755 0001174  78.6543 223.6426 15.46814572  9903,6804.189,93.095,426.852,425.255,0.0
53155.0,STARLINK-4088,PAYLOAD,2022-09-14 22:00:00,15.45958767,0.0001238,53.217,115.4932,75.1432,283.9684,-0.020605,-0.00935911,0.0,0 STARLINK-4088,1 53155U 22083Z   22257.91667824 -.00935911  00000-0 -20605-1 0  9999,2 53155  53.2170 115.4932 0001238  75.1432 283.9684 15.45958767  1301,6806.699000000001,93.146,429.407,427.722,0.0
53155.0,STARLINK-4088,PAYLOAD,2022-09-15 14:00:01,15.44531713,0.0001335,53.2166,112.3252,61.6795,48.1671,-0.024522,-0.01049108,0.0,0 STARLINK-4088,1 53155U 22083Z   22258.58334491 -.01049108  00000-0 -24522-1 0  9991,2 53155  53.2166 112.3252 0001335  61.6795  48.1671 15.44531713  1301,6810.891,93.232,433.666,431.847,0.0
53155.0,STARLINK-4088,PAYLOAD,2022-09-15 22:00:00,15.43777851,0.0001486,53.2173,110.7463,58.762,105.1052,-0.0253569999999999,-0.01056515,0.0,0 STARLINK-4088,1 53155U 22083Z   22258.91667824 -.01056515  00000-0 -25357-1 0  9994,2 53155  53.2173 110.7463 0001486  58.7620 105.1052 15.43777851  1307,6813.108,93.278,435.986,433.961,0.0
53155.0,STARLINK-4088,PAYLOAD,2022-09-16 14:00:01,15.42257848,0.000127,53.2174,107.5896,76.686,192.4924,-0.026624,-0.01068516,0.0,0 STARLINK-4088,1 53155U 22083Z   22259.58334491 -.01068516  00000-0 -26624-1 0  9991,2 53155  53.2174 107.5896 0001270  76.6860 192.4924 15.42257848  1303,6817.584,93.37,440.315,438.583,0.0
